#aV2019  1  5  0  0  0.00000000      96 DD+AD WGS84 FIT  NGA
## 2034 518400.00000000   900.00000000 58488 0.0000000000000
+   31     1  2  3  5  6  7  8  9 10 11 12 13 14 15 16 17 18
+         19 20 21 22 23 24 25 26 27 28 29 30 31 32  0  0  0
+          0  0  0  0  0  0  0  0  0  0  0  0  0  0  0  0  0
+          0  0  0  0  0  0  0  0  0  0  0  0  0  0  0  0  0
+          0  0  0  0  0  0  0  0  0  0  0  0  0  0  0  0  0
++         2  2  2  2  2  2  2  2  2  2  2  2  2  2  2  2  2
++         2  2  2  2  2  2  2  2  2  2  2  2  2  2  0  0  0
++         0  0  0  0  0  0  0  0  0  0  0  0  0  0  0  0  0
++         0  0  0  0  0  0  0  0  0  0  0  0  0  0  0  0  0
++         0  0  0  0  0  0  0  0  0  0  0  0  0  0  0  0  0
%c cc cc ccc ccc cccc cccc cccc cccc ccccc ccccc ccccc ccccc
%c cc cc ccc ccc cccc cccc cccc cccc ccccc ccccc ccccc ccccc
%f  0.0000000  0.000000000  0.00000000000  0.000000000000000
%f  0.0000000  0.000000000  0.00000000000  0.000000000000000
%i    0    0    0    0      0      0      0      0         0
%i    0    0    0    0      0      0      0      0         0
/*      NGA, ST. LOUIS,MO.                                  
/*   EPHEMERIS COMPUTED FROM 2 DAYS OF DATA                 
/*   EPOCHA v3 LONG-TERM PREDICTOR                          
/*   G1762 IERS2010 SATAF SATCOM                            
*  2019  1  5 18 45  0.00000000
P  1 -20129.372005 -10220.203787  14067.081349   -140.446869               P   P
V  1  -9772.796695 -15213.336687 -24442.119076     -0.062633                    
P  2  13528.402149  22173.706670   6621.343272   -105.201143               P   P
V  2  -7049.742243  -3895.996292  29976.460918     -0.102079                    
P  3 -15902.053110    -22.955848  21223.750417    175.152254               P   P
V  3   9378.117284 -25378.563364   7054.387108      0.027414                    
P  5   5817.695007  19529.599807 -17047.033693      0.695463               P   P
V  5  -9369.510042  19492.742595  19467.959770      0.000257                    
P  6   2550.118531  20899.205849  16219.312814    302.714598               P   P
V  6 -14037.911840 -15025.937406  21641.223322     -0.073164                    
P  7 -15365.470726   4340.619864 -21049.420596     57.216500               P   P
V  7 -16191.488601 -21902.252380   6767.999597     -0.069903                    
P  8 -20746.765501  -7117.531827 -15056.723979   -128.045763               P   P
V  8  18596.890253  -4754.429382 -23121.498914     -0.011630                    
P  9 -24690.852491   8050.224567  -5642.604423    475.231425               P   P
V  9  -7494.273396  -1810.309521  30460.621196     -0.043626                    
P 10  11031.766097 -23945.244321  -2156.950505    140.516623               P   P
V 10   1696.510319   3686.381805 -31756.169921     -0.061467                    
P 11 -24516.130588  -8783.147067   4031.092110   -679.376251               P   P
V 11  -3138.503256  -6772.596324 -30103.919089      0.050434                    
P 12  14223.990720   3913.216977  21877.839238    278.757432               P   P
V 12 -11822.053279  25605.650860   3253.400200     -0.031130                    
P 13  13619.097840  12771.572491 -19021.591125    -79.297738               P   P
V 13 -23836.266405   1840.985839 -15896.991913      0.012612                    
P 14   3004.291463 -15425.330106  21694.964839    -93.617787               P   P
V 14  26833.094862  -1343.198382  -4912.687790      0.005638                    
P 15  23143.599160   4375.336751 -12900.226630   -333.446294               P   P
V 15 -14829.656854   6381.671341 -24538.552148      0.015087                    
P 16  -3514.208105 -19387.756311 -17760.853777    -10.927643               P   P
V 16  11229.669924 -19358.564531  19505.982472     -0.023315                    
P 17 -13351.000965  13780.877344  18728.412631     -8.822801               P   P
V 17 -22922.065718   1066.896556 -17612.526666      0.050450                    
P 18 -19467.499636 -17481.511569   4514.384430     12.841885               P   P
V 18  -1914.570625  -6699.100786 -30787.227738      0.036024                    
P 19  -3637.736909  14630.262634  21586.624737   -366.455490               P   P
V 19 -28021.085886    992.356063  -5219.009028      0.039290                    
P 20  14238.685753 -19012.678091 -11864.294409    520.788714               P   P
V 20   -764.503745  15328.248282 -25867.020254      0.004305                    
P 21  12736.871108  -8358.122009 -20950.377717   -274.490224               P   P
V 21  18668.900027  21632.649910   2705.889851      0.069065                    
P 22 -13990.165540  -8449.897610  21172.527019   -615.871915               P   P
V 22   8569.021915 -25065.645426  -4345.266209     -0.088034                    
P 23 -26397.961946    867.508789   4742.002260   -201.429026               P   P
V 23   5037.465801  -3792.898957  30327.960355      0.011309                    
P 24  20995.557077  13244.772830   9741.015143    -60.393940               P   P
V 24   6047.448538  11319.113585 -27689.025060     -0.000103                    
P 25  16891.955082  -8655.820530  18280.971011   -701.654305               P   P
V 25  -7363.790341  22545.873864  17545.016826     -0.054410                    
P 26   2141.372193 -24717.964163  -9256.460954     88.090458               P   P
V 26   6805.739734 -10068.679625  28651.978731      0.106922                    
P 27 -11507.635623 -12344.987355 -20664.985293    -43.980808               P   P
V 27  25538.199258  -4504.138955 -11304.777459     -0.063151                    
P 28 -13404.701458  22747.619224  -2641.952300    761.004166               P   P
V 28      8.514358  -4590.022356 -31975.792506      0.012554                    
P 29  26122.929114  -3973.693624  -2702.688899    299.841871               P   P
V 29   3556.413664   1748.846868  32038.128904     -0.083070                    
P 30  -7190.919091  15367.890313 -20379.544871    -31.140549               P   P
V 30 -16129.434992 -20452.521213  -9893.475524     -0.061645                    
P 31  -4288.551416 -22003.486927  13906.824318     67.837653               P   P
V 31  12607.394393  12819.772097  24624.100805     -0.026295                    
P 32  10556.387878 -15226.401425  19031.569501   -287.960378               P   P
V 32  24074.745399  -2242.377097 -15277.752341      0.167040                    
EOF
